STARLINK-3048
1 29148C 21082U   21325.19066810  .00021260  00000-0  17807-3 0  3253
2 29148  69.9992 295.5328 0004001 284.9589 146.1239 15.69726688    11
